NORAD_CAT_ID,OBJECT_NAME,OBJECT_TYPE,EPOCH,MEAN_MOTION,ECCENTRICITY,INCLINATION,RA_OF_ASC_NODE,ARG_OF_PERICENTER,MEAN_ANOMALY,BSTAR,MEAN_MOTION_DOT,MEAN_MOTION_DDOT,TLE_LINE0,TLE_LINE1,TLE_LINE2,SEMIMAJOR_AXIS,PERIOD,APOGEE,PERIGEE,DECAYED
49151.0,STARLINK-3102,PAYLOAD,2022-06-28 20:24:17,14.96723844,0.0002967,69.9976,57.2588,267.5464,92.5354,-7.2913e-05,-9.26e-06,0.0,0 STARLINK-3102,1 49151U 21082X   22179.85020285 -.00000926  00000-0 -72913-4 0  9999,2 49151  69.9976  57.2588 0002967 267.5464  92.5354 14.96723844 45983,6955.1640000000025,96.21,579.0930000000002,574.966,0.0
49151.0,STARLINK-3102,PAYLOAD,2022-06-29 01:13:00,14.96718327,0.000296,69.9977,56.7543,269.1585,90.9234,-9.7989e-05,-1.213e-05,0.0,0 STARLINK-3102,1 49151U 21082X   22180.05070243 -.00001213  00000-0 -97989-4 0  9992,2 49151  69.9977  56.7543 0002960 269.1585  90.9234 14.96718327 46029,6955.181,96.21,579.105,574.988,0.0
49151.0,STARLINK-3102,PAYLOAD,2022-06-29 09:14:12,14.96710612,0.0002784,69.9976,55.9143,266.7322,93.3518,-0.00019157,-2.283e-05,0.0,0 STARLINK-3102,1 49151U 21082X   22180.38487011 -.00002283  00000-0 -19157-3 0  9991,2 49151  69.9976  55.9143 0002784 266.7322  93.3518 14.96710612 46077,6955.205,96.211,579.007,575.134,0.0
49151.0,STARLINK-3102,PAYLOAD,2022-06-29 22:04:07,14.96705342,0.0002911,69.9976,54.5692,267.4495,92.633,-6.799100000000001e-05,-8.7e-06,0.0,0 STARLINK-3102,1 49151U 21082X   22180.91952913 -.00000870  00000-0 -67991-4 0  9998,2 49151  69.9976  54.5692 0002911 267.4495  92.6330 14.96705342 46148,6955.222,96.211,579.111,575.062,0.0
49151.0,STARLINK-3102,PAYLOAD,2022-06-30 09:17:47,14.96708293,0.0002877,69.9976,53.3926,267.8706,92.2122,-4.6681e-05,-6.26e-06,0.0,0 STARLINK-3102,1 49151U 21082X   22181.38735292 -.00000626  00000-0 -46681-4 0  9991,2 49151  69.9976  53.3926 0002877 267.8706  92.2122 14.96708293 46216,6955.212,96.211,579.078,575.076,0.0
49151.0,STARLINK-3102,PAYLOAD,2022-06-30 20:31:27,14.96710117,0.0002843,69.9978,52.216,267.8801,92.2032,-7.4185e-05,-9.4e-06,0.0,0 STARLINK-3102,1 49151U 21082X   22181.85517845 -.00000940  00000-0 -74185-4 0  9994,2 49151  69.9978  52.2160 0002843 267.8801  92.2032 14.96710117 46280,6955.206999999999,96.211,579.049,575.094,0.0
49151.0,STARLINK-3102,PAYLOAD,2022-07-01 01:20:10,14.96707831,0.000277,69.9979,51.7115,267.6527,92.4314,-2.5929000000000004e-07,-9.5e-07,0.0,0 STARLINK-3102,1 49151U 21082X   22182.05567489 -.00000095  00000-0 -25929-6 0  9991,2 49151  69.9979  51.7115 0002770 267.6527  92.4314 14.96707831 46315,6955.214,96.211,579.005,575.1519999999998,0.0
49151.0,STARLINK-3102,PAYLOAD,2022-07-01 20:35:01,14.96707794,0.0002784,69.9978,49.6943,267.8922,92.1917,6.6344e-05,6.68e-06,0.0,0 STARLINK-3102,1 49151U 21082X   22182.85766133  .00000668  00000-0  66344-4 0  9994,2 49151  69.9978  49.6943 0002784 267.8922  92.1917 14.96707794 46432,6955.214,96.211,579.015,575.143,0.0
49151.0,STARLINK-3102,PAYLOAD,2022-07-02 14:13:38,14.96714134,0.0002765,69.9978,47.8452,267.8451,92.2391,7.2052e-05,7.33e-06,0.0,0 STARLINK-3102,1 49151U 21082X   22183.59281111  .00000733  00000-0  72052-4 0  9990,2 49151  69.9978  47.8452 0002765 267.8451  92.2391 14.96714134 46548,6955.194,96.211,578.982,575.136,0.0
49151.0,STARLINK-3102,PAYLOAD,2022-07-02 15:49:53,14.96715006,0.0002764,69.9978,47.6771,267.7726,92.3116,7.9221e-05,8.15e-06,0.0,0 STARLINK-3102,1 49151U 21082X   22183.65964236  .00000815  00000-0  79221-4 0  9999,2 49151  69.9978  47.6771 0002764 267.7726  92.3116 14.96715006 46560,6955.191999999999,96.211,578.979,575.134,0.0
49151.0,STARLINK-3102,PAYLOAD,2022-07-03 07:52:15,14.9672038,0.0002734,69.9978,45.9961,267.5914,92.4931,0.00010616,1.124e-05,0.0,0 STARLINK-3102,1 49151U 21082X   22184.32795701  .00001124  00000-0  10616-3 0  9999,2 49151  69.9978  45.9961 0002734 267.5914  92.4931 14.96720380 46653,6955.175,96.21,578.942,575.138,0.0
49151.0,STARLINK-3102,PAYLOAD,2022-07-03 17:29:40,14.96723366,0.0002728,69.9977,44.9875,266.7065,93.3781,9.7229e-05,1.022e-05,0.0,0 STARLINK-3102,1 49151U 21082X   22184.72894542  .00001022  00000-0  97229-4 0  9999,2 49151  69.9977  44.9875 0002728 266.7065  93.3781 14.96723366 46724,6955.166,96.21,578.928,575.133,0.0
49151.0,STARLINK-3102,PAYLOAD,2022-07-03 20:42:09,14.96723934,0.0002728,69.9978,44.6513,266.4736,93.611,9.9889e-05,1.052e-05,0.0,0 STARLINK-3102,1 49151U 21082X   22184.86260819  .00001052  00000-0  99889-4 0  9995,2 49151  69.9978  44.6513 0002728 266.4736  93.6110 14.96723934 46734,6955.1640000000025,96.21,578.9259999999998,575.132,0.0
49151.0,STARLINK-3102,PAYLOAD,2022-07-03 23:54:37,14.9672506,0.0002713,69.9978,44.3151,266.9729,93.1118,0.00010919,1.159e-05,0.0,0 STARLINK-3102,1 49151U 21082X   22184.99627040  .00001159  00000-0  10919-3 0  9996,2 49151  69.9978  44.3151 0002713 266.9729  93.1118 14.96725060 46757,6955.16,96.21,578.9119999999998,575.139,0.0
49151.0,STARLINK-3102,PAYLOAD,2022-07-04 17:33:15,14.96714524,0.0002571,69.9981,42.4659,265.8782,94.2083,-9.3615e-05,-1.163e-05,0.0,0 STARLINK-3102,1 49151U 21082X   22185.73143244 -.00001163  00000-0 -93615-4 0  9990,2 49151  69.9981  42.4659 0002571 265.8782  94.2083 14.96714524 46871,6955.193,96.211,578.846,575.27,0.0
49151.0,STARLINK-3102,PAYLOAD,2022-07-04 22:21:58,14.96715143,0.0002569,69.9982,41.9615,264.3645,95.722,-8.1551e-05,-1.025e-05,0.0,0 STARLINK-3102,1 49151U 21082X   22185.93192735 -.00001025  00000-0 -81551-4 0  9994,2 49151  69.9982  41.9615 0002569 264.3645  95.7220 14.96715143 46896,6955.191,96.211,578.8430000000002,575.269,0.0
49151.0,STARLINK-3102,PAYLOAD,2022-07-05 07:59:23,14.96719158,0.0002607,69.9981,40.9525,264.4261,95.66,-5.1294e-05,-6.79e-06,0.0,0 STARLINK-3102,1 49151U 21082X   22186.33291528 -.00000679  00000-0 -51294-4 0  9994,2 49151  69.9981  40.9525 0002607 264.4261  95.6600 14.96719158 46961,6955.179,96.21,578.857,575.231,0.0
49151.0,STARLINK-3102,PAYLOAD,2022-07-05 20:49:17,14.96722496,0.000266,69.998,39.6077,265.2862,94.7993,-4.6292e-05,-6.21e-06,0.0,0 STARLINK-3102,1 49151U 21082X   22186.86756638 -.00000621  00000-0 -46292-4 0  9999,2 49151  69.9980  39.6077 0002660 265.2862  94.7993 14.96722496 47035,6955.168000000002,96.21,578.883,575.183,0.0
49151.0,STARLINK-3102,PAYLOAD,2022-07-06 08:02:57,14.96718477,0.000277,69.9978,38.4312,265.7548,94.3294,7.317100000000001e-05,7.46e-06,0.0,0 STARLINK-3102,1 49151U 21082X   22187.33538787  .00000746  00000-0  73171-4 0  9997,2 49151  69.9978  38.4312 0002770 265.7548  94.3294 14.96718477 47112,6955.181,96.21,578.972,575.119,0.0
49151.0,STARLINK-3102,PAYLOAD,2022-07-06 20:52:51,14.96720956,0.0002795,69.9978,37.0864,265.7164,94.3675,7.9957e-05,8.24e-06,0.0,0 STARLINK-3102,1 49151U 21082X   22187.87004058  .00000824  00000-0  79957-4 0  9990,2 49151  69.9978  37.0864 0002795 265.7164  94.3675 14.96720956 47185,6955.1730000000025,96.21,578.982,575.094,0.0
49151.0,STARLINK-3102,PAYLOAD,2022-07-07 00:05:20,14.96716167,0.0002821,69.9978,36.7502,266.2557,93.8279,2.0988000000000006e-05,1.49e-06,0.0,0 STARLINK-3102,1 49151U 21082X   22188.00370901  .00000149  00000-0  20988-4 0  9999,2 49151  69.9978  36.7502 0002821 266.2557  93.8279 14.96716167 47208,6955.188,96.211,579.015,575.091,0.0
49151.0,STARLINK-3102,PAYLOAD,2022-07-07 17:43:58,14.96709212,0.000278,69.9977,34.9009,265.7498,94.3343,-0.00010411,-1.283e-05,0.0,0 STARLINK-3102,1 49151U 21082X   22188.73886973 -.00001283  00000-0 -10411-3 0  9991,2 49151  69.9977  34.9009 0002780 265.7498  94.3343 14.96709212 47325,6955.21,96.211,579.008,575.141,0.0
49151.0,STARLINK-3102,PAYLOAD,2022-07-07 20:56:26,14.96709521,0.0002745,69.9977,34.5647,266.2697,93.8147,-9.0261e-05,-1.124e-05,0.0,0 STARLINK-3102,1 49151U 21082X   22188.87253367 -.00001124  00000-0 -90261-4 0  9997,2 49151  69.9977  34.5647 0002745 266.2697  93.8147 14.96709521 47337,6955.209,96.211,578.9830000000002,575.164,0.0
49151.0,STARLINK-3102,PAYLOAD,2022-07-08 06:33:52,14.96715054,0.0002747,69.9978,33.556,266.5661,93.5183,-3.5338e-05,-4.96e-06,0.0,0 STARLINK-3102,1 49151U 21082X   22189.27352125 -.00000496  00000-0 -35338-4 0  9999,2 49151  69.9978  33.5560 0002747 266.5661  93.5183 14.96715054 47400,6955.191,96.211,578.967,575.146,0.0
49151.0,STARLINK-3102,PAYLOAD,2022-07-08 19:23:46,14.96720329,0.0002807,69.9975,32.2112,265.7676,94.3161,6.8883000000000015e-06,-1.3e-07,0.0,0 STARLINK-3102,1 49151U 21082X   22189.80817168 -.00000013  00000-0  68883-5 0  9997,2 49151  69.9975  32.2112 0002807 265.7676  94.3161 14.96720329 47473,6955.175,96.21,578.992,575.0880000000002,0.0
49151.0,STARLINK-3102,PAYLOAD,2022-07-09 13:02:22,14.96718113,0.000288,69.9975,30.3618,264.2772,95.8058,0.00011829,1.263e-05,0.0,0 STARLINK-3102,1 49151U 21082X   22190.54332084  .00001263  00000-0  11829-3 0  9992,2 49151  69.9975  30.3618 0002880 264.2772  95.8058 14.96718113 47586,6955.182,96.211,579.05,575.044,0.0
49151.0,STARLINK-3102,PAYLOAD,2022-07-09 16:14:51,14.9671938,0.0002882,69.9976,30.0256,264.2465,95.8364,0.00012721,1.365e-05,0.0,0 STARLINK-3102,1 49151U 21082X   22190.67698334  .00001365  00000-0  12721-3 0  9994,2 49151  69.9976  30.0256 0002882 264.2465  95.8364 14.96719380 47603,6955.178000000001,96.21,579.048,575.039,0.0
49151.0,STARLINK-3102,PAYLOAD,2022-07-10 13:05:57,14.9671263,0.0002926,69.9976,27.8402,263.8229,96.2596,-4.5241e-05,-6.09e-06,0.0,0 STARLINK-3102,1 49151U 21082X   22191.54580743 -.00000609  00000-0 -45241-4 0  9991,2 49151  69.9976  27.8402 0002926 263.8229  96.2596 14.96712630 47739,6955.199000000001,96.211,579.099,575.029,0.0
49151.0,STARLINK-3102,PAYLOAD,2022-07-10 21:07:09,14.96714475,0.0002961,69.9977,26.9994,263.6039,96.4782,-5.754e-05,-7.4999999999999985e-06,0.0,0 STARLINK-3102,1 49151U 21082X   22191.87996657 -.00000750  00000-0 -57540-4 0  9994,2 49151  69.9977  26.9994 0002961 263.6039  96.4782 14.96714475 47785,6955.193,96.211,579.118,574.999,0.0
